{"type": "FeatureCollection", "features": [ {"type": "Feature", "properties": {"norad_id": 66494, "name": "STARLINK-35689", "group": "last-30-days", "lat": -0.12383625941073942, "lon": 123.81906577159945, "alt_km": 425.5124078997587, "timestamp": "2025-12-12T22:42:11.305354+00:00", "meta": {"OBJECT_NAME": "STARLINK-35689", "OBJECT_ID": "2025-263K", "EPOCH": "2025-12-12T00:00:04.999968", "MEAN_MOTION": 15.50772647, "ECCENTRICITY": 9.158e-05, "INCLINATION": 43.0002, "RA_OF_ASC_NODE": 129.4704, "ARG_OF_PERICENTER": 269.0531, "MEAN_ANOMALY": 210.4733, "EPHEMERIS_TYPE": 0, "CLASSIFICATION_TYPE": "U", "NORAD_CAT_ID": 66494, "ELEMENT_SET_NO": 999, "REV_AT_EPOCH": 551, "BSTAR": -0.037144127, "MEAN_MOTION_DOT": -0.01964096, "MEAN_MOTION_DDOT": 0}, "tle": {"line1": "1 66494U 25263K   25346.00005787 -.01964096  00000+0 -37144-1 0  9990", "line2": "2 66494  43.0002 129.4704 0000915 269.0531 210.4733 15.50772647  5513"}}, "geometry": {"type": "Point", "coordinates": [123.81906577159945, -0.12383625941073942]}}, {"type": "Feature", "properties": {"norad_id": 66495, "name": "STARLINK-35832", "group": "last-30-days", "lat": 9.237035514102415, "lon": 133.96705638984113, "alt_km": 413.1481225395373, "timestamp": "2025-12-12T22:42:11.305364+00:00", "meta": {"OBJECT_NAME": "STARLINK-35832", "OBJECT_ID": "2025-263L", "EPOCH": "2025-12-12T00:00:04.999968", "MEAN_MOTION": 15.50528078, "ECCENTRICITY": 0.0001618, "INCLINATION": 43.0001, "RA_OF_ASC_NODE": 129.4504, "ARG_OF_PERICENTER": 288.52, "MEAN_ANOMALY": 198.6964, "EPHEMERIS_TYPE": 0, "CLASSIFICATION_TYPE": "U", "NORAD_CAT_ID": 66495, "ELEMENT_SET_NO": 999, "REV_AT_EPOCH": 551, "BSTAR": 0.00096668704, "MEAN_MOTION_DOT": 0.00056678, "MEAN_MOTION_DDOT": 0}, "tle": {"line1": "1 66495U 25263L   25346.00005787  .00056678  00000+0  96669-3 0  9995", "line2": "2 66495  43.0001 129.4504 0001618 288.5200 198.6964 15.50528078  5511"}}, "geometry": {"type": "Point", "coordinates": [133.96705638984113, 9.237035514102415]}}, {"type": "Feature", "properties": {"norad_id": 66496, "name": "STARLINK-35909", "group": "last-30-days", "lat": 10.511844147318042, "lon": 135.3968868440819, "alt_km": 413.19483241927264, "timestamp": "2025-12-12T22:42:11.305375+00:00", "meta": {"OBJECT_NAME": "STARLINK-35909", "OBJECT_ID": "2025-263M", "EPOCH": "2025-12-12T00:00:04.999968", "MEAN_MOTION": 15.50511169, "ECCENTRICITY": 0.00016285, "INCLINATION": 43.0003, "RA_OF_ASC_NODE": 129.4454, "ARG_OF_PERICENTER": 276.5944, "MEAN_ANOMALY": 212.5393, "EPHEMERIS_TYPE": 0, "CLASSIFICATION_TYPE": "U", "NORAD_CAT_ID": 66496, "ELEMENT_SET_NO": 999, "REV_AT_EPOCH": 551, "BSTAR": 0.0011925225, "MEAN_MOTION_DOT": 0.00070077, "MEAN_MOTION_DDOT": 0}, "tle": {"line1": "1 66496U 25263M   25346.00005787  .00070077  00000+0  11925-2 0  9996", "line2": "2 66496  43.0003 129.4454 0001628 276.5944 212.5393 15.50511169  5516"}}, "geometry": {"type": "Point", "coordinates": [135.3968868440819, 10.511844147318042]}}, {"type": "Feature", "properties": {"norad_id": 66497, "name": "STARLINK-35899", "group": "last-30-days", "lat": 11.812208667967925, "lon": 136.87564507760874, "alt_km": 412.94525339107076, "timestamp": "2025-12-12T22:42:11.305385+00:00", "meta": {"OBJECT_NAME": "STARLINK-35899", "OBJECT_ID": "2025-263N", "EPOCH": "2025-12-12T00:00:04.999968", "MEAN_MOTION": 15.50504116, "ECCENTRICITY": 0.00016468, "INCLINATION": 43.0004, "RA_OF_ASC_NODE": 129.4407, "ARG_OF_PERICENTER": 278.3763, "MEAN_ANOMALY": 212.6859, "EPHEMERIS_TYPE": 0, "CLASSIFICATION_TYPE": "U", "NORAD_CAT_ID": 66497, "ELEMENT_SET_NO": 999, "REV_AT_EPOCH": 551, "BSTAR": 0.0014363781, "MEAN_MOTION_DOT": 0.00084614, "MEAN_MOTION_DDOT": 0}, "tle": {"line1": "1 66497U 25263N   25346.00005787  .00084614  00000+0  14364-2 0  9999", "line2": "2 66497  43.0004 129.4407 0001646 278.3763 212.6859 15.50504116  5517"}}, "geometry": {"type": "Point", "coordinates": [136.87564507760874, 11.812208667967925]}}, {"type": "Feature", "properties": {"norad_id": 66498, "name": "STARLINK-35907", "group": "last-30-days", "lat": -40.891846538863334, "lon": 55.80168547204457, "alt_km": 446.17326410338137, "timestamp": "2025-12-12T22:42:11.305394+00:00", "meta": {"OBJECT_NAME": "STARLINK-35907", "OBJECT_ID": "2025-263P", "EPOCH": "2025-12-12T06:00:00.999648", "MEAN_MOTION": 15.40657014, "ECCENTRICITY": 0.00014721, "INCLINATION": 43.0003, "RA_OF_ASC_NODE": 128.1388, "ARG_OF_PERICENTER": 250.4984, "MEAN_ANOMALY": 130.9541, "EPHEMERIS_TYPE": 0, "CLASSIFICATION_TYPE": "U", "NORAD_CAT_ID": 66498, "ELEMENT_SET_NO": 999, "REV_AT_EPOCH": 555, "BSTAR": 0.0025024977, "MEAN_MOTION_DOT": 0.00105538, "MEAN_MOTION_DDOT": 0}, "tle": {"line1": "1 66498U 25263P   25346.25001157  .00105538  00000+0  25025-2 0  9999", "line2": "2 66498  43.0003 128.1388 0001472 250.4984 130.9541 15.40657014  5553"}}, "geometry": {"type": "Point", "coordinates": [55.80168547204457, -40.891846538863334]}}, {"type": "Feature", "properties": {"norad_id": 66499, "name": "STARLINK-35816", "group": "last-30-days", "lat": -24.04178130064223, "lon": 95.43502266579532, "alt_km": 446.46227035676657, "timestamp": "2025-12-12T22:42:11.305407+00:00", "meta": {"OBJECT_NAME": "STARLINK-35816", "OBJECT_ID": "2025-263Q", "EPOCH": "2025-12-12T06:00:00.999648", "MEAN_MOTION": 15.40838942, "ECCENTRICITY": 0.0001659, "INCLINATION": 43.0005, "RA_OF_ASC_NODE": 128.0478, "ARG_OF_PERICENTER": 259.9228, "MEAN_ANOMALY": 158.8637, "EPHEMERIS_TYPE": 0, "CLASSIFICATION_TYPE": "U", "NORAD_CAT_ID": 66499, "ELEMENT_SET_NO": 999, "REV_AT_EPOCH": 555, "BSTAR": -0.0065790275, "MEAN_MOTION_DOT": -0.00266974, "MEAN_MOTION_DDOT": 0}, "tle": {"line1": "1 66499U 25263Q   25346.25001157 -.00266974  00000+0 -65790-2 0  9997", "line2": "2 66499  43.0005 128.0478 0001659 259.9228 158.8637 15.40838942  5553"}}, "geometry": {"type": "Point", "coordinates": [95.43502266579532, -24.04178130064223]}}, {"type": "Feature", "properties": {"norad_id": 66500, "name": "STARLINK-35894", "group": "last-30-days", "lat": -42.371039237039184, "lon": 22.397476127506337, "alt_km": 446.18041918327526, "timestamp": "2025-12-12T22:42:11.305417+00:00", "meta": {"OBJECT_NAME": "STARLINK-35894", "OBJECT_ID": "2025-263R", "EPOCH": "2025-12-12T06:00:00.999648", "MEAN_MOTION": 15.40695565, "ECCENTRICITY": 0.00019062, "INCLINATION": 43.0003, "RA_OF_ASC_NODE": 128.2004, "ARG_OF_PERICENTER": 269.3169, "MEAN_ANOMALY": 87.3182, "EPHEMERIS_TYPE": 0, "CLASSIFICATION_TYPE": "U", "NORAD_CAT_ID": 66500, "ELEMENT_SET_NO": 999, "REV_AT_EPOCH": 555, "BSTAR": -0.00025581078, "MEAN_MOTION_DOT": -0.00010973, "MEAN_MOTION_DDOT": 0}, "tle": {"line1": "1 66500U 25263R   25346.25001157 -.00010973  00000+0 -25581-3 0  9991", "line2": "2 66500  43.0003 128.2004 0001906 269.3169  87.3182 15.40695565  5558"}}, "geometry": {"type": "Point", "coordinates": [22.397476127506337, -42.371039237039184]}}, {"type": "Feature", "properties": {"norad_id": 66501, "name": "STARLINK-35897", "group": "last-30-days", "lat": -7.8820366205400765, "lon": 115.43360540109609, "alt_km": 443.2919724701633, "timestamp": "2025-12-12T22:42:11.305427+00:00", "meta": {"OBJECT_NAME": "STARLINK-35897", "OBJECT_ID": "2025-263S", "EPOCH": "2025-12-12T06:00:00.999648", "MEAN_MOTION": 15.4411138, "ECCENTRICITY": 0.00016335, "INCLINATION": 43.0006, "RA_OF_ASC_NODE": 127.9998, "ARG_OF_PERICENTER": 273.1578, "MEAN_ANOMALY": 165.8641, "EPHEMERIS_TYPE": 0, "CLASSIFICATION_TYPE": "U", "NORAD_CAT_ID": 66501, "ELEMENT_SET_NO": 999, "REV_AT_EPOCH": 555, "BSTAR": -0.048532274, "MEAN_MOTION_DOT": -0.02023978, "MEAN_MOTION_DDOT": 0}, "tle": {"line1": "1 66501U 25263S   25346.25001157 -.02023978  00000+0 -48532-1 0  9992", "line2": "2 66501  43.0006 127.9998 0001633 273.1578 165.8641 15.44111380  5558"}}, "geometry": {"type": "Point", "coordinates": [115.43360540109609, -7.8820366205400765]}}, {"type": "Feature", "properties": {"norad_id": 66502, "name": "STARLINK-35922", "group": "last-30-days", "lat": 20.474280451869912, "lon": 147.4925729235859, "alt_km": 411.9697914299295, "timestamp": "2025-12-12T22:42:11.305437+00:00", "meta": {"OBJECT_NAME": "STARLINK-35922", "OBJECT_ID": "2025-263T", "EPOCH": "2025-12-12T00:00:04.999968", "MEAN_MOTION": 15.50508444, "ECCENTRICITY": 0.00017133, "INCLINATION": 43.0003, "RA_OF_ASC_NODE": 129.4062, "ARG_OF_PERICENTER": 276.5913, "MEAN_ANOMALY": 227.8901, "EPHEMERIS_TYPE": 0, "CLASSIFICATION_TYPE": "U", "NORAD_CAT_ID": 66502, "ELEMENT_SET_NO": 999, "REV_AT_EPOCH": 551, "BSTAR": 0.0011848689, "MEAN_MOTION_DOT": 0.00069615, "MEAN_MOTION_DDOT": 0}, "tle": {"line1": "1 66502U 25263T   25346.00005787  .00069615  00000+0  11849-2 0  9995", "line2": "2 66502  43.0003 129.4062 0001713 276.5913 227.8901 15.50508444  5516"}}, "geometry": {"type": "Point", "coordinates": [147.4925729235859, 20.474280451869912]}}, {"type": "Feature", "properties": {"norad_id": 66503, "name": "STARLINK-35917", "group": "last-30-days", "lat": 13.468332991660407, "lon": 138.79176970322018, "alt_km": 430.6333676756385, "timestamp": "2025-12-12T22:42:11.305449+00:00", "meta": {"OBJECT_NAME": "STARLINK-35917", "OBJECT_ID": "2025-263U", "EPOCH": "2025-12-12T06:00:00.999648", "MEAN_MOTION": 15.47630674, "ECCENTRICITY": 0.00015402, "INCLINATION": 42.9999, "RA_OF_ASC_NODE": 127.943, "ARG_OF_PERICENTER": 281.2686, "MEAN_ANOMALY": 180.5152, "EPHEMERIS_TYPE": 0, "CLASSIFICATION_TYPE": "U", "NORAD_CAT_ID": 66503, "ELEMENT_SET_NO": 999, "REV_AT_EPOCH": 555, "BSTAR": -0.043374684, "MEAN_MOTION_DOT": -0.02041877, "MEAN_MOTION_DDOT": 0}, "tle": {"line1": "1 66503U 25263U   25346.25001157 -.02041877  00000+0 -43375-1 0  9992", "line2": "2 66503  42.9999 127.9430 0001540 281.2686 180.5152 15.47630674  5553"}}, "geometry": {"type": "Point", "coordinates": [138.79176970322018, 13.468332991660407]}}]}